OBJECT_NAME,OBJECT_ID,EPOCH,MEAN_MOTION,ECCENTRICITY,INCLINATION,RA_OF_ASC_NODE,ARG_OF_PERICENTER,MEAN_ANOMALY,EPHEMERIS_TYPE,CLASSIFICATION_TYPE,NORAD_CAT_ID,ELEMENT_SET_NO,REV_AT_EPOCH,BSTAR,MEAN_MOTION_DOT,MEAN_MOTION_DDOT
METEOR-M2 3,2023-091A,2024-01-20T18:35:47.031360,14.23866696,.0003843,98.7365,76.6242,185.3037,174.8102,0,U,57166,999,2950,.3513E-4,.36E-6,0
STRATOSAT-TK 1 (RS52S),2023-091B,2024-01-20T18:20:22.719840,15.07586286,.0015542,97.6365,74.6376,267.2862,92.6587,0,U,57167,999,3116,.10068E-2,.15316E-3,0
UMKA 1 (RS40S),2023-091G,2024-01-20T19:29:22.834176,15.05487365,.0015874,97.6374,74.4200,266.9343,93.0067,0,U,57172,999,3115,.47913E-3,.6846E-4,0
2023-091H,2023-091H,2024-01-20T18:39:34.586496,15.05579040,.0014519,97.6358,74.3119,277.7674,82.1904,0,U,57173,999,3114,.5589E-3,.8014E-4,0
2023-091J,2023-091J,2024-01-20T18:42:43.405056,15.04331480,.0014689,97.6359,74.1526,277.5928,82.3629,0,U,57174,999,3113,.23851E-3,.327E-4,0
CUBEBEL 2 (EU11S),2023-091K,2024-01-20T19:02:16.895040,15.05493411,.0014232,97.6369,74.2813,280.6592,79.3031,0,U,57175,999,3114,.57946E-3,.8292E-4,0
SITRO-AIS 5 (KATYS),2023-091L,2024-01-20T19:49:07.492224,15.05725709,.001741,97.6375,74.4264,267.6156,92.3077,0,U,57176,999,3115,.65268E-3,.9418E-4,0
ZORKIY 2M,2023-091M,2024-01-20T19:42:11.806272,15.05533051,.0017012,97.6387,74.4573,262.5956,97.3338,0,U,57177,999,3115,.55436E-3,.7946E-4,0
CUBESX-HSE 3 (RS42S),2023-091N,2024-01-20T19:01:34.436352,15.06043693,.0016552,97.6405,74.5460,261.1074,98.8279,0,U,57178,999,3115,.59436E-3,.8641E-4,0
MONITOR-3 (RS58S),2023-091Q,2024-01-20T19:27:20.571264,15.05794427,.0016882,97.6403,74.5058,261.4988,98.4326,0,U,57180,999,3115,.57826E-3,.835E-4,0
MONITOR-4 (RS57S),2023-091S,2024-01-20T19:28:53.001984,15.05788994,.0016957,97.6398,74.4900,262.2438,97.6864,0,U,57182,999,3115,.59491E-3,.8591E-4,0
MONITOR-2 (RS39S),2023-091U,2024-01-20T19:14:43.585440,15.05893986,.001292,97.6403,74.6685,254.7810,105.1988,0,U,57184,999,3116,.36173E-3,.5205E-4,0
SVYATOBOR 1 (RS60S),2023-091X,2024-01-20T19:19:10.158816,15.06715526,.0012628,97.6405,74.8211,252.4339,107.5509,0,U,57187,999,3117,.52687E-3,.7782E-4,0
HORS 1,2023-091Y,2024-01-20T19:11:07.343520,15.06728862,.0012091,97.6384,74.7869,254.4571,105.5322,0,U,57188,999,3117,.4448E-3,.6561E-4,0
VIZARD-METEO (RS38S),2023-091Z,2024-01-20T19:11:12.618240,15.07523759,.001164,97.6396,74.9618,250.2726,109.7246,0,U,57189,999,3118,.62081E-3,.9385E-4,0
NANOZOND 1 (RS49S),2023-091AA,2024-01-20T18:43:45.206112,15.08744356,.0010481,97.6363,75.0691,256.8503,103.1556,0,U,57190,999,3119,.78606E-3,.12304E-3,0
SITRO-AIS 6 (CHIRKIN),2023-091AC,2024-01-20T19:36:55.406016,15.05800150,.0017021,97.6379,74.4323,267.4159,92.5119,0,U,57192,999,3115,.6135E-3,.8865E-4,0
SITRO-AIS 8 (ANOKHIN),2023-091AD,2024-01-20T19:22:12.140544,15.05953642,.0016494,97.6378,74.4417,268.6309,91.3028,0,U,57193,999,3115,.63156E-3,.9164E-4,0
SITRO-AIS 7 (FARTUSHNIY),2023-091AE,2024-01-20T19:38:40.351776,15.05765890,.0016904,97.6377,74.4269,268.0679,91.8612,0,U,57194,999,3115,.63883E-3,.9225E-4,0
AVION KALUGA 650,2023-091AF,2024-01-20T18:17:27.824640,15.06169440,.001267,97.6407,74.7587,256.8679,103.1135,0,U,57195,999,3116,.41211E-3,.5983E-4,0
HORS 2,2023-091AG,2024-01-20T18:24:22.061664,15.07183683,.0012404,97.6388,74.8620,255.5866,104.3985,0,U,57196,999,3117,.6462E-3,.9684E-4,0
A-SEANSAT-PG1,2023-091AH,2024-01-20T19:38:58.733376,15.07401390,.0011933,97.6380,74.8905,257.8146,102.1745,0,U,57197,999,3118,.68281E-3,.10296E-3,0
YARILO 3,2023-091AJ,2024-01-20T19:05:00.543552,15.10085826,.0011109,97.6424,75.3660,255.7457,104.2538,0,U,57198,999,3120,.11802E-2,.1922E-3,0
SITRO-AIS 10 (BURDAEV),2023-091AK,2024-01-20T19:25:53.643360,15.07514232,.0011508,97.6392,74.9337,256.5190,103.4756,0,U,57199,999,3118,.65265E-3,.9867E-4,0
SITRO-AIS 9 (SHCHUKIN),2023-091AM,2024-01-20T19:22:43.616928,15.07511133,.0011461,97.6388,74.9232,256.3107,103.6845,0,U,57201,999,3118,.63779E-3,.964E-4,0
UTMN 2 (RS27S),2023-091AP,2024-01-20T19:41:54.935808,15.07256135,.0012268,97.6395,74.9322,251.0903,108.8995,0,U,57203,999,3118,.63532E-3,.9538E-4,0
SITRO-AIS 12 (SMIRENNIY),2023-091AQ,2024-01-20T18:53:00.796992,15.07662957,.0011564,97.6390,74.9781,249.9809,110.0174,0,U,57204,999,3118,.61035E-3,.926E-4,0
ARCCUBE 1 (RS25S),2023-091AR,2024-01-20T18:17:49.307136,15.09156045,.0010833,97.6346,75.0447,259.3192,100.6817,0,U,57205,999,3119,.98235E-3,.15575E-3,0
SITRO-AIS 11 (SHEFFER),2023-091AU,2024-01-20T18:42:10.137600,15.07722910,.0011512,97.6384,74.9810,250.6128,109.3856,0,U,57208,999,3118,.62462E-3,.9494E-4,0
H2SAT (HEINRICH HERTZ),2023-093A,2024-01-17T02:16:36.316128,1.00270532,.0000615,0.0198,105.0874,9.8260,35.7307,0,U,57213,999,207,0,.4E-7,0
