METEOR-M2 3             
1 57166U 23091A   24020.77484990  .00000036  00000+0  35130-4 0  9990
2 57166  98.7365  76.6242 0003843 185.3037 174.8102 14.23866696 29507
STRATOSAT-TK 1 (RS52S)  
1 57167U 23091B   24020.76415185  .00015316  00000+0  10068-2 0  9998
2 57167  97.6365  74.6376 0015542 267.2862  92.6587 15.07586286 31163
UMKA 1 (RS40S)          
1 57172U 23091G   24020.81206984  .00006846  00000+0  47913-3 0  9993
2 57172  97.6374  74.4200 0015874 266.9343  93.0067 15.05487365 31154
2023-091H               
1 57173U 23091H   24020.77748364  .00008014  00000+0  55890-3 0  9994
2 57173  97.6358  74.3119 0014519 277.7674  82.1904 15.05579040 31147
2023-091J               
1 57174U 23091J   24020.77966904  .00003270  00000+0  23851-3 0  9998
2 57174  97.6359  74.1526 0014689 277.5928  82.3629 15.04331480 31135
CUBEBEL 2 (EU11S)       
1 57175U 23091K   24020.79325110  .00008292  00000+0  57946-3 0  9990
2 57175  97.6369  74.2813 0014232 280.6592  79.3031 15.05493411 31141
SITRO-AIS 5 (KATYS)     
1 57176U 23091L   24020.82578116  .00009418  00000+0  65268-3 0  9998
2 57176  97.6375  74.4264 0017410 267.6156  92.3077 15.05725709 31157
ZORKIY 2M               
1 57177U 23091M   24020.82096998  .00007946  00000+0  55436-3 0  9992
2 57177  97.6387  74.4573 0017012 262.5956  97.3338 15.05533051 31156
CUBESX-HSE 3 (RS42S)    
1 57178U 23091N   24020.79275968  .00008641  00000+0  59436-3 0  9992
2 57178  97.6405  74.5460 0016552 261.1074  98.8279 15.06043693 31157
MONITOR-3 (RS58S)       
1 57180U 23091Q   24020.81065476  .00008350  00000+0  57826-3 0  9997
2 57180  97.6403  74.5058 0016882 261.4988  98.4326 15.05794427 31150
MONITOR-4 (RS57S)       
1 57182U 23091S   24020.81172456  .00008591  00000+0  59491-3 0  9993
2 57182  97.6398  74.4900 0016957 262.2438  97.6864 15.05788994 31152
MONITOR-2 (RS39S)       
1 57184U 23091U   24020.80189335  .00005205  00000+0  36173-3 0  9999
2 57184  97.6403  74.6685 0012920 254.7810 105.1988 15.05893986 31160
SVYATOBOR 1 (RS60S)     
1 57187U 23091X   24020.80497869  .00007782  00000+0  52687-3 0  9996
2 57187  97.6405  74.8211 0012628 252.4339 107.5509 15.06715526 31178
HORS 1                  
1 57188U 23091Y   24020.79939055  .00006561  00000+0  44480-3 0  9999
2 57188  97.6384  74.7869 0012091 254.4571 105.5322 15.06728862 31175
VIZARD-METEO (RS38S)    
1 57189U 23091Z   24020.79945160  .00009385  00000+0  62081-3 0  9998
2 57189  97.6396  74.9618 0011640 250.2726 109.7246 15.07523759 31189
NANOZOND 1 (RS49S)      
1 57190U 23091AA  24020.78038433  .00012304  00000+0  78606-3 0  9990
2 57190  97.6363  75.0691 0010481 256.8503 103.1556 15.08744356 31197
SITRO-AIS 6 (CHIRKIN)   
1 57192U 23091AC  24020.81730794  .00008865  00000+0  61350-3 0  9990
2 57192  97.6379  74.4323 0017021 267.4159  92.5119 15.05800150 31157
SITRO-AIS 8 (ANOKHIN)   
1 57193U 23091AD  24020.80708496  .00009164  00000+0  63156-3 0  9993
2 57193  97.6378  74.4417 0016494 268.6309  91.3028 15.05953642 31155
SITRO-AIS 7 (FARTUSHNIY)
1 57194U 23091AE  24020.81852259  .00009225  00000+0  63883-3 0  9997
2 57194  97.6377  74.4269 0016904 268.0679  91.8612 15.05765890 31150
AVION KALUGA 650        
1 57195U 23091AF  24020.76212760  .00005983  00000+0  41211-3 0  9997
2 57195  97.6407  74.7587 0012670 256.8679 103.1135 15.06169440 31160
HORS 2                  
1 57196U 23091AG  24020.76692201  .00009684  00000+0  64620-3 0  9991
2 57196  97.6388  74.8620 0012404 255.5866 104.3985 15.07183683 31170
A-SEANSAT-PG1           
1 57197U 23091AH  24020.81873534  .00010296  00000+0  68281-3 0  9996
2 57197  97.6380  74.8905 0011933 257.8146 102.1745 15.07401390 31180
YARILO 3                
1 57198U 23091AJ  24020.79514518  .00019220  00000+0  11802-2 0  9990
2 57198  97.6424  75.3660 0011109 255.7457 104.2538 15.10085826 31203
SITRO-AIS 10 (BURDAEV)  
1 57199U 23091AK  24020.80964865  .00009867  00000+0  65265-3 0  9996
2 57199  97.6392  74.9337 0011508 256.5190 103.4756 15.07514232 31184
SITRO-AIS 9 (SHCHUKIN)  
1 57201U 23091AM  24020.80744927  .00009640  00000+0  63779-3 0  9992
2 57201  97.6388  74.9232 0011461 256.3107 103.6845 15.07511133 31189
UTMN 2 (RS27S)          
1 57203U 23091AP  24020.82077472  .00009538  00000+0  63532-3 0  9993
2 57203  97.6395  74.9322 0012268 251.0903 108.8995 15.07256135 31182
SITRO-AIS 12 (SMIRENNIY)
1 57204U 23091AQ  24020.78681478  .00009260  00000+0  61035-3 0  9994
2 57204  97.6390  74.9781 0011564 249.9809 110.0174 15.07662957 31183
ARCCUBE 1 (RS25S)       
1 57205U 23091AR  24020.76237624  .00015575  00000+0  98235-3 0  9991
2 57205  97.6346  75.0447 0010833 259.3192 100.6817 15.09156045 31192
SITRO-AIS 11 (SHEFFER)  
1 57208U 23091AU  24020.77928400  .00009494  00000+0  62462-3 0  9990
2 57208  97.6384  74.9810 0011512 250.6128 109.3856 15.07722910 31183
H2SAT (HEINRICH HERTZ)  
1 57213U 23093A   24017.09486477  .00000004  00000+0  00000+0 0  9996
2 57213   0.0198 105.0874 0000615   9.8260  35.7307  1.00270532  2074
